gid,placename,pop,x,y
30669,Ciudad Madero,197216,-97.8313888888889,22.2763888888889
30856,González,11212,-98.4305555555556,22.8280555555556
30908,Estación Manuel (Úrsulo Galván),12077,-98.3197222222222,22.7277777777778
31450,Ciudad Gustavo Díaz Ordaz,11523,-98.5969444444444,26.2322222222222
32155,Ciudad Mante,84787,-98.9722222222222,22.7425
32410,Heroica Matamoros,449815,-97.5041666666667,25.8797222222222
33288,Ciudad Miguel Alemán,19997,-99.0252777777778,26.4002777777778
33370,Nuevo Laredo,373725,-99.5080555555556,27.4863888888889
33785,Reynosa,589466,-98.2777777777778,26.0922222222222
46412,Los Mochis,256613,-108.996944444444,25.7936111111111
34203,Ciudad Río Bravo,95647,-98.0902777777778,25.9816666666667
34254,Nuevo Progreso,10178,-97.9522222222222,26.0561111111111
34832,San Fernando,29665,-98.1583333333333,24.8475
35161,Soto La Marina,10620,-98.2077777777778,23.7675
35641,Tampico,297284,-97.8686111111111,22.2552777777778
35648,Ciudad Tula,10043,-99.7083333333333,23.0027777777778
35774,Valle Hermoso,48918,-97.8144444444444,25.6736111111111
36005,Ciudad Victoria,305155,-99.1461111111111,23.7361111111111
46415,Ahome,11331,-109.172222222222,25.9188888888889
36645,Balancán,13030,-91.5363888888889,17.8052777777778
37025,Cárdenas,91558,-93.3763888888889,18.0011111111111
37197,Frontera,22795,-92.6469444444445,18.5336111111111
37401,Villahermosa,353577,-92.9280555555556,17.9891666666667
37509,Playas Del Rosario (Subteniente García),21893,-92.9316666666667,17.8522222222222
37534,Ocuiltzapotlán,18312,-92.8616666666667,18.1355555555556
37569,Parrilla Ii,10967,-92.9266666666667,17.8755555555556
37610,Comalcalco,41458,-93.2247222222222,18.2716666666667
37674,Tecolutilla,10637,-93.3311111111111,18.2819444444444
37728,Cunduacán,19824,-93.1755555555556,18.0672222222222
37843,Emiliano Zapata,20030,-91.7636111111111,17.7413888888889
37908,Huimanguillo,27344,-93.3913888888889,17.8302777777778
38309,Jalpa De Méndez,15695,-93.0625,18.1763888888889
38526,Macuspana,32225,-92.5975,17.76
38540,Benito Juárez (San Carlos),14451,-92.5283333333333,17.8327777777778
38816,Pomoca,10864,-92.9305555555556,18.0497222222222
38817,Paraíso,25186,-93.2127777777778,18.3961111111111
38954,Teapa,26548,-92.9533333333333,17.5488888888889
39009,Tenosique De Pino Suárez,32579,-91.4266666666667,17.4725
39153,Agua Prieta,77254,-109.548888888889,31.3258333333333
40179,Heroica Caborca,59922,-112.159166666667,30.7155555555556
40520,Ciudad Obregón,298625,-109.935,27.4891666666667
40617,Esperanza,38969,-109.928333333333,27.5813888888889
40652,Pueblo Yaqui,14234,-110.035555555556,27.3541666666667
41502,Heroica Ciudad De Cananea,31560,-110.300555555556,30.9819444444444
41873,Empalme,42516,-110.814166666667,27.9616666666667
42227,Heroica Guaymas,113082,-110.898888888889,27.9183333333333
42583,Hermosillo,715061,-110.954166666667,29.0988888888889
42665,Miguel Alemán (La Doce),30869,-111.4775,28.8402777777778
43597,Huatabampo,30475,-109.642222222222,26.8275
43896,Magdalena De Kino,26605,-110.9675,30.6269444444444
44110,Nacozari De García,11489,-109.685555555556,30.3741666666667
44130,Navojoa,113836,-109.445277777778,27.0808333333333
44430,Heroica Nogales,212533,-110.945833333333,31.3186111111111
44791,Puerto Peñasco,56756,-113.536944444444,31.3166666666667
45131,San Luis Río Colorado,158089,-114.7625,32.4766666666667
45591,Santa Ana,11864,-111.121388888889,30.5425
46129,Sonoita,12849,-112.854444444444,31.8613888888889
46205,Villa Juárez,13770,-109.841666666667,27.1288888888889
47683,Culiacán Rosales,675773,-107.398055555556,24.7919444444444
47745,Costa Rica,24874,-107.392222222222,24.59
47754,Eldorado,13197,-107.367222222222,24.3244444444444
49025,La Cruz,15657,-106.891944444444,23.9213888888889
49156,Escuinapa De Hidalgo,30790,-105.778055555556,22.8333333333333
49253,El Fuerte,12566,-108.617777777778,26.4163888888889
49643,Guasave,71196,-108.470277777778,25.5733333333333
49644,Adolfo Ruiz Cortines,12978,-108.719444444444,25.7044444444444
49696,Gabriel Leyva Solano (Benito Juárez),24914,-108.626666666667,25.6616666666667
49698,Juan José Ríos,23553,-108.821666666667,25.7572222222222
50186,Mazatlán,381583,-106.409722222222,23.2413888888889
50268,Villa Unión,13404,-106.215833333333,23.1883333333333
50827,El Rosario,16001,-105.861388888889,22.9919444444444
51058,Guamúchil,63743,-108.077777777778,25.4644444444444
51915,Navolato,29153,-107.703055555556,24.7655555555556
52085,Licenciado Benito Juárez (Campo Gobierno),24185,-107.545,24.6566666666667
52613,Cárdenas,15469,-99.6438888888889,21.9966666666667
52765,Cedral,11468,-100.726388888889,23.8194444444444
52834,Cerritos,14804,-100.278333333333,22.4275
52901,Ciudad Del Maíz,10391,-99.6083333333333,22.3988888888889
53003,Ciudad Fernández,32006,-100.010555555556,21.9411111111111
53316,Ciudad Valles,124644,-99.0186111111111,21.9869444444444
103472,Tultepec,64888,-99.1280555555555,19.685
53867,Charcas,12748,-101.113333333333,23.1297222222222
54044,Ébano,24296,-98.3780555555555,22.2119444444444
54364,Matehuala,77328,-100.644444444444,23.6463888888889
54846,Rioverde,53128,-99.9927777777778,21.9325
55103,Salinas De Hidalgo,16821,-101.708611111111,22.6288888888889
55338,San Luis Potosí,722772,-100.975,22.1497222222222
55878,Santa María Del Río,13099,-100.736111111111,21.7975
56357,Soledad De Graciano Sánchez,255015,-100.940833333333,22.1830555555556
56664,Tamazunchale,24562,-98.7913888888889,21.2627777777778
57148,Tamuín,16318,-98.775,22.0041666666667
57546,Tanquián De Escobedo,10127,-98.6619444444444,21.6002777777778
58174,Villa De Reyes,10383,-100.933333333333,21.8038888888889
58996,El Naranjo,10562,-99.3227777777778,22.5194444444444
59086,Cozumel,77236,-86.9416666666667,20.5166666666667
59208,Felipe Carrillo Puerto,25744,-88.0452777777778,19.5786111111111
59424,Isla Mujeres,12642,-86.7316666666667,21.2322222222222
59528,Chetumal,151243,-88.3052777777778,18.5036111111111
59532,Bacalar,11048,-88.3952777777778,18.6769444444444
60255,Cancún,628306,-86.8475,21.1605555555556
60256,Alfredo V. Bonfil,14900,-86.8513888888889,21.0825
60572,José María Morelos,11750,-88.7125,19.7461111111111
60761,Playa Del Carmen,149923,-87.0811111111111,20.6275
60909,Tulum,18233,-87.4658333333333,20.2119444444444
61533,Cadereyta De Montes,13347,-99.815,20.6947222222222
61906,El Pueblito,71254,-100.441388888889,20.5397222222222
61934,San José De Los Olvera,18406,-100.415,20.5527777777778
61964,Venceremos,15538,-100.398055555556,20.5508333333333
62026,Ezequiel Montes,14053,-99.8980555555556,20.6658333333333
62258,Jalpan De Serra,11010,-99.4730555555556,21.2172222222222
62514,La Cañada,10506,-100.331388888889,20.6063888888889
63007,Santiago De Querétaro,626495,-100.388055555556,20.5880555555556
63026,Juriquilla,13309,-100.458888888889,20.71
63056,San José El Alto,14094,-100.381388888889,20.655
63058,San Pedro Mártir,11552,-100.470277777778,20.6169444444444
63061,Santa Rosa Jáuregui,18508,-100.4475,20.7419444444444
63346,San Juan Del Río,138878,-99.9963888888889,20.3888888888889
63583,Tequisquiapan,29799,-99.8916666666667,20.5225
63800,Acajete,20923,-97.9511111111111,19.1033333333333
63928,Acatlán De Osorio,16307,-98.0486111111111,18.2033333333333
64001,Acatzingo De Hidalgo,25811,-97.7822222222222,18.9816666666667
64136,Ciudad De Ajalpan,28031,-97.2594444444444,18.3783333333333
64223,Altepexi,18217,-97.2986111111111,18.3675
64243,Amozoc De Mota,77106,-98.045,19.0461111111111
64252,Casa Blanca,17262,-98.1188888888889,19.0422222222222
64336,Atlixco,86690,-98.4377777777778,18.9088888888889
64648,Santa María Coronango,14859,-98.3069444444444,19.1322222222222
64650,San Francisco Ocotlán (Ocotlán),11636,-98.2852777777778,19.1322222222222
64821,San Juan Cuautlancingo,25104,-98.2725,19.0897222222222
64824,Sanctorum,27936,-98.2541666666667,19.0991666666667
64826,San Lorenzo Almecatla,13217,-98.2352777777778,19.1430555555556
65062,Ciudad Serdán,23824,-97.4466666666667,18.9888888888889
65121,Ciudad De Chiautla De Tapia,10320,-98.6038888888889,18.3
65262,Atencingo,10879,-98.6055555555556,18.5133333333333
65312,Ciudad De Chignahuapan,19608,-98.0327777777778,19.8394444444444
65469,Chignautla,11096,-97.3880555555556,19.8144444444444
65784,Guadalupe Victoria,10035,-97.3419444444444,19.2913888888889
65914,Huauchinango,56206,-98.0527777777778,20.1766666666667
66018,Huejotzingo,25684,-98.4063888888889,19.1619444444444
66032,Santa Ana Xalmimilulco,16125,-98.3830555555555,19.2119444444444
66481,Izúcar De Matamoros,43006,-98.4652777777778,18.6027777777778
66701,Santa María Zacatepec,12466,-98.3652777777778,19.1233333333333
66753,Ciudad De Libres,15536,-97.6866666666667,19.4663888888889
66902,San Buenaventura Nealtican,11517,-98.4288888888889,19.0516666666667
67309,Heróica Puebla De Zaragoza,1434062,-98.1975,19.0452777777778
67325,San Miguel Canoa,14863,-98.1030555555556,19.1519444444444
67328,Santa María Xonacatepec,13673,-98.1036111111111,19.0894444444444
67429,Quecholac,10216,-97.6611111111111,18.9572222222222
67434,Palmarito Tochapan,17213,-97.6355555555556,18.9033333333333
67542,Ciudad De Rafael Lara Grajales,10054,-97.8052777777778,19.2252777777778
67544,Los Reyes De Juárez,16683,-97.8127777777778,18.9458333333333
67559,San Andrés Cholula,39964,-98.2997222222222,19.0511111111111
67561,San Bernardino Tlaxcalancingo,54517,-98.275,19.0288888888889
67607,San Gabriel Chilac,12149,-97.35,18.3280555555556
67693,San Martín Texmelucan De Labastida,75518,-98.4336111111111,19.2852777777778
67698,San Rafael Tlanalapan,15998,-98.4680555555556,19.2916666666667
67699,Santa María Moyotzingo,27137,-98.4047222222222,19.2452777777778
67738,San Matías Tlalancaleca,11076,-98.4966666666667,19.3252777777778
67774,San Miguel Xoxtla,11269,-98.3088888888889,19.1691666666667
67827,Cholula De Rivadavia,87897,-98.3061111111111,19.0613888888889
67829,Santiago Momoxpan,17622,-98.2669444444444,19.0736111111111
67859,San Salvador El Seco,17263,-97.6405555555556,19.1361111111111
67955,San Salvador Huixcolotla,12148,-97.7708333333333,18.9219444444444
68076,Santiago Miahuatlán,13909,-97.4419444444444,18.5544444444444
68160,Tecamachalco,28679,-97.7277777777778,18.8852777777778
68173,San Mateo Tlaixpan,10513,-97.7352777777778,18.915
68246,Tehuacán,248716,-97.3930555555556,18.4638888888889
68491,Tepatlaxco De Hidalgo,16085,-97.9708333333333,19.0808333333333
68502,Tepeaca,27449,-97.9025,18.9680555555556
68771,Teziutlán,58699,-97.3605555555555,19.8188888888889
69346,Villa Lázaro Cárdenas (La Uno),12253,-97.7025,20.4644444444444
69511,Xicotepec De Juárez,39803,-97.955,20.2741666666667
69833,Zacatlán,33736,-97.9605555555556,19.9333333333333
69972,Zaragoza,10743,-97.5566666666667,19.7727777777778
70112,San Sebastián Zinacatepec,15592,-97.245,18.3347222222222
70398,Asunción Nochixtlán,13284,-97.225,17.4572222222222
70609,Ciudad Ixtepec,25381,-95.1,16.5627777777778
70763,Cuilápam De Guerrero,12360,-96.7816666666667,16.9972222222222
70820,Chahuites,10763,-94.1955555555556,16.2866666666667
71097,Heroica Ciudad De Huajuapan De León,53043,-97.7758333333333,17.8038888888889
71174,Huautla De Jiménez,10528,-96.8430555555556,18.1305555555556
71305,Heroica Ciudad De Juchitán De Zaragoza,74825,-95.0194444444444,16.4333333333333
71407,Loma Bonita,31485,-95.8805555555555,18.1069444444444
71683,Matías Romero Avendaño,18944,-95.0416666666667,16.8722222222222
71925,Miahuatlán De Porfirio Díaz,23940,-96.5961111111111,16.3283333333333
72113,Oaxaca De Juárez,255029,-96.72,17.0677777777778
72149,Ocotlán De Morelos,15016,-96.675,16.7913888888889
72311,Putla Villa De Guerrero,10925,-97.9291666666667,17.0258333333333
72415,Salina Cruz,76596,-95.1958333333333,16.1825
72775,San Antonio De La Cal,20198,-96.7005555555556,17.0283333333333
72873,San Blas Atempa,11959,-95.2255555555556,16.3263888888889
73367,San Francisco Telixtlahuaca,10618,-96.9041666666667,17.2944444444444
73453,San Jacinto Amilpas,13860,-96.7625,17.1005555555556
73870,San Juan Bautista Tuxtepec,101810,-96.1238888888889,18.0861111111111
76061,Puerto Escondido,25902,-97.0716666666667,15.8619444444444
76138,San Pedro Pochutla,13685,-96.4652777777778,15.7444444444444
76531,Río Grande O Piedra Parada,12943,-97.4375,16.0136111111111
76841,El Rosario,11707,-96.6916666666667,17.0444444444444
77072,Santa Cruz Amilpas,10120,-96.6833333333333,17.0583333333333
77230,Santa Cruz Xoxocotlán,67086,-96.7333333333333,17.0263888888889
77354,Santa Lucía Del Camino,44023,-96.6933333333333,17.0625
77423,Heroica Ciudad De Tlaxiaco,17543,-97.6791666666667,17.2694444444444
77534,Santa María Atzompa,21788,-96.7777777777778,17.1013888888889
77938,Crucecita,15130,-96.135,15.7688888888889
78810,Santiago Jamiltepec,10107,-97.82,16.2783333333333
79131,Santiago Pinotepa Nacional,29604,-98.0502777777778,16.3380555555556
79848,Santo Domingo Tehuantepec,42082,-95.2388888888889,16.3244444444444
80376,Tlacolula De Matamoros,13821,-96.4791666666667,16.9541666666667
80443,Unión Hidalgo,13683,-94.8297222222222,16.475
80546,Villa De Zaachila,13959,-96.7491666666667,16.9508333333333
80550,Vicente Guerrero,13794,-96.7013888888889,16.9330555555556
80642,Zimatlán De Álvarez,10986,-96.785,16.8661111111111
80777,Ciudad De Allende,26065,-100.020277777778,25.2836111111111
80841,Anáhuac,16628,-100.132222222222,27.2405555555556
81104,Ciudad Apodaca,467157,-100.188888888889,25.7816666666667
81396,Cadereyta Jiménez,68111,-100.001388888889,25.5905555555556
81776,Ciénega De Flores,15162,-100.166944444444,25.9533333333333
82097,Doctor Arroyo,10272,-100.18,23.6730555555556
82870,García,93641,-100.599166666667,25.8122222222222
82905,Parque Industrial Ciudad Mitras,18312,-100.447777777778,25.7886111111111
82938,Villas Del Poniente,18246,-100.425833333333,25.7758333333333
82950,San Pedro Garza García,122627,-100.401666666667,25.6641666666667
83100,Ciudad General Escobedo,352444,-100.326944444444,25.8086111111111
83622,Fraccionamiento Real Palmas,34636,-100.159722222222,25.9041666666667
83633,Guadalupe,673616,-100.235,25.6791666666667
104647,Ameca,36156,-104.043055555556,20.5486111111111
83810,Ciudad Benito Juárez,151893,-100.094722222222,25.6475
83823,Jardines De La Silla (Jardines),53742,-100.187777777778,25.6294444444444
83904,Arboledas De San Roque,25793,-100.143055555556,25.6105555555556
83959,Linares,63104,-99.5666666666667,24.86
84531,Montemorelos,45108,-99.8266666666667,25.1872222222222
84935,Monterrey,1135512,-100.308611111111,25.6713888888889
85321,Ciudad Sabinas Hidalgo,33068,-100.184444444444,26.5030555555556
85637,San Nicolás De Los Garza,443273,-100.302222222222,25.7416666666667
85638,Hidalgo,16524,-100.450833333333,25.9755555555556
85654,Ciudad Santa Catarina,268347,-100.462222222222,25.6755555555556
85700,Santiago,36840,-100.1525,25.4269444444444
85957,Acaponeta,19140,-105.360833333333,22.4925
86181,Compostela,17573,-104.900833333333,21.2372222222222
86240,Las Varas,14077,-105.136944444444,21.1783333333333
86559,Ixtlán Del Río,23303,-104.367777777778,21.0341666666667
86667,Xalisco,35702,-104.901666666667,21.4441666666667
87277,Ruiz,14050,-105.145555555556,21.9502777777778
87356,San Blas,10187,-105.285555555556,21.5397222222222
87594,Santiago Ixcuintla,18241,-105.206666666667,21.8113888888889
87752,Tecuala,14511,-105.457222222222,22.3972222222222
87846,Tepic,332863,-104.894166666667,21.5163888888889
88018,Tuxpan,21709,-105.299444444444,21.9436111111111
88427,Bucerías,13098,-105.334722222222,20.7552777777778
88447,Mezcales,20092,-105.284444444444,20.7302777777778
89223,Jojutla,18867,-99.1802777777778,18.6147222222222
88458,San José Del Valle,22541,-105.228055555556,20.7625
88459,San Juan De Abajo,10442,-105.191666666667,20.815
88462,San Vicente,14324,-105.251111111111,20.7469444444444
88739,Axochiapan,17508,-98.7538888888889,18.5025
88795,Anenecuilco,10773,-98.9861111111111,18.7780555555556
88796,San Pedro Apatlaco,12630,-98.9597222222222,18.7930555555556
88938,Cuautla,154358,-98.9558333333333,18.8122222222222
88994,Cuernavaca,338650,-99.2341666666667,18.9186111111111
89059,Emiliano Zapata,49193,-99.1841666666667,18.8394444444444
89063,Tres De Mayo,17966,-99.2083333333333,18.8686111111111
89195,Jiutepec,162427,-99.1777777777778,18.8813888888889
89198,Progreso,14525,-99.1533333333333,18.88
89410,Puente De Ixtla,21098,-99.3197222222222,18.6166666666667
89417,Xoxocotla,21074,-99.2438888888889,18.685
89499,Temixco,97788,-99.2272222222222,18.8544444444444
89535,Tepalcingo,12053,-98.8436111111111,18.5963888888889
89573,Tepoztlán,14130,-99.0997222222222,18.9852777777778
89661,Tetela Del Volcán,10199,-98.7297222222222,18.8930555555556
89700,Tlaltizapán,10563,-99.1177777777778,18.6833333333333
89710,Santa Rosa Treinta,16691,-99.1788888888889,18.6983333333333
89765,Tlaquiltenango,18334,-99.1602777777778,18.6288888888889
89872,Xochitepec,19164,-99.2313888888889,18.7808333333333
89885,Unidad Habitacional José María Morelos Y Pavón,10625,-99.2622222222222,18.8202777777778
107223,El Grullo,20924,-104.215555555556,19.8075
89951,Yautepec De Zaragoza,42731,-99.0605555555556,18.8858333333333
89963,La Joya,13715,-99.1222222222222,18.8841666666667
90053,Yecapixtla,16811,-98.865,18.8833333333333
90058,Juan Morales,12756,-98.9219444444444,18.8113888888889
90114,Zacatepec De Hidalgo,21586,-99.1911111111111,18.6563888888889
90115,San Nicolás Galeana,10726,-99.2097222222222,18.6411111111111
90472,Apatzingán De La Constitución,99010,-102.350833333333,19.0886111111111
91175,Ario De Rosales,16595,-101.708055555556,19.2072222222222
91310,Arteaga,10537,-102.289166666667,18.3575
91697,Buenavista Tomatlán,10390,-102.586388888889,19.2094444444444
91703,Felipe Carrillo Puerto (La Ruana),10217,-102.708611111111,19.1605555555556
92037,Coalcomán De Vázquez Pallares,10784,-103.16,18.7775
92581,Cotija De La Paz,13560,-102.704722222222,19.81
92661,Cuitzeo Del Porvenir,10239,-101.14,19.9691666666667
92775,Cherán,14245,-101.954722222222,19.6866666666667
93238,Lombardía,12610,-102.051111111111,19.1580555555556
93279,Ciudad Hidalgo,60542,-100.553611111111,19.6916666666667
93742,Huetamo De Núñez,21864,-100.897222222222,18.6269444444444
94148,Jacona De Plancarte,56934,-102.302777777778,19.9555555555556
94210,Jiquilpan De Juárez,24233,-102.717222222222,19.9941666666667
94670,Maravatío De Ocampo,34381,-100.442777777778,19.8933333333333
94843,Ciudad Lázaro Cárdenas,79200,-102.192222222222,17.9561111111111
94859,Las Guacamayas,37980,-102.212222222222,18.0180555555556
94865,La Mira,13415,-102.330277777778,18.0361111111111
94868,La Orilla,20126,-102.226944444444,17.9958333333333
95000,Morelia,597511,-101.185555555556,19.7022222222222
95061,Morelos,13565,-101.238888888889,19.6488888888889
95251,Conjunto Habitacional Villas Del Pedregal,10934,-101.303611111111,19.6836111111111
95329,Nueva Italia De Ruiz,32467,-102.094166666667,19.025
95381,Nahuatzen,10283,-101.915833333333,19.6536111111111
95533,Nuevo San Juan Parangaricutiro,14772,-102.128611111111,19.4166666666667
95696,Pajacuarán,10014,-102.566666666667,20.1177777777778
95825,Paracho De Verduzco,18868,-102.048333333333,19.6438888888889
95840,Pátzcuaro,55298,-101.609722222222,19.5163888888889
95977,Peribán De Ramos,15434,-102.415,19.5211111111111
96068,La Piedad De Cabadas,83323,-102.025,20.3391666666667
96172,Purépero De Echáiz,13856,-102.006944444444,19.9105555555556
96180,Puruándiro,30571,-101.515833333333,20.0880555555556
96264,Quiroga,14669,-101.523055555556,19.6658333333333
96296,Los Reyes De Salgado,39209,-102.474166666667,19.59
96351,Sahuayo De Morelos,64431,-102.723888888889,20.0575
96488,Santa Clara Del Cobre,14359,-101.638333333333,19.4052777777778
96524,Opopeo,10055,-101.605277777778,19.4125
96719,Tacámbaro De Codallos,25665,-101.456944444444,19.2355555555556
97030,Santiago Tangamandapio,10463,-102.432777777778,19.9563888888889
97052,Tangancícuaro De Arista,15068,-102.205,19.8888888888889
97243,Tepalcatepec,15221,-102.846111111111,19.1891666666667
98772,Uruapan,264439,-102.058333333333,19.4194444444444
99003,Venustiano Carranza,11987,-102.664444444444,20.1119444444444
99075,Vista Hermosa De Negrete,10752,-102.480555555556,20.2727777777778
99091,Yurécuaro,23843,-102.283055555556,20.3375
99116,Zacapu,52806,-101.790833333333,19.8166666666667
99164,Zamora De Hidalgo,141627,-102.283055555556,19.9855555555556
99263,Zinapécuaro De Figueroa,15875,-100.827222222222,19.8586111111111
99392,Heróica Zitácuaro,84307,-100.358888888889,19.4380555555556
99696,Tepexpan,102667,-98.9144444444445,19.6136111111111
99852,San Francisco Tlalcilalcalpan,16509,-99.7688888888889,19.2922222222222
120623,Arcelia,18685,-100.281666666667,18.3211111111111
100206,San Salvador Atenco,17124,-98.9125,19.5583333333333
100143,Amecameca De Juárez,31687,-98.7627777777778,19.1277777777778
100188,Apaxco De Ocampo,13836,-99.17,19.9733333333333
100226,Ciudad López Mateos,489160,-99.2469444444445,19.5611111111111
100233,Atlacomulco De Fabela,22774,-99.8744444444444,19.7975
100297,Atlautla De Victoria,10967,-98.7805555555556,19.0272222222222
100391,Calimaya De Díaz González,11165,-99.6172222222222,19.1608333333333
100421,Capulhuac De Mirafuentes,20757,-99.4647222222222,19.1916666666667
100434,San Francisco Coacalco,277959,-99.0930555555556,19.6333333333333
100506,Coyotepec,35677,-99.2055555555556,19.7755555555556
100512,Cuautitlán,108449,-99.1791666666667,19.6669444444444
100539,Chalco De Díaz Covarrubias,168720,-98.8975,19.2647222222222
100541,San Gregorio Cuautzingo,13138,-98.8577777777778,19.2561111111111
100543,San Juan Tezompa,11819,-98.9588888888889,19.2063888888889
100545,San Marcos Huixtoco,12229,-98.8608333333333,19.2961111111111
100546,San Martín Cuautlalpan,23501,-98.8327777777778,19.2727777777778
100547,San Mateo Huitzilzingo,15389,-98.9252777777778,19.2258333333333
100549,San Pablo Atlazalpan,11236,-98.9066666666667,19.2166666666667
100550,Santa Catarina Ayotzingo,10702,-98.9294444444444,19.2091666666667
100551,Santa María Huexoculco,12456,-98.8036111111111,19.2552777777778
100654,Chicoloapan De Juárez,172919,-98.9011111111111,19.4152777777778
100670,Chiconcuac De Juárez,21738,-98.8925,19.5583333333333
100672,Chimalhuacán,612383,-98.9541666666667,19.4375
100708,Ecatepec De Morelos,1655015,-99.06,19.6097222222222
100720,Huehuetoca,11948,-99.2033333333333,19.8341666666667
100737,Colonia Santa Teresa,36845,-99.2333333333333,19.845
100766,Jesús Del Monte,23150,-99.2944444444444,19.375
100769,Magdalena Chichicaspa,12193,-99.3227777777778,19.4180555555556
100777,Santiago Yancuitlalpan,10013,-99.3055555555556,19.3819444444444
100787,Naucalpan De Juárez,121470,-99.2766666666667,19.3969444444444
100838,Ixtapaluca,322271,-98.8822222222222,19.3186111111111
100839,San Buenaventura,44761,-98.8630555555555,19.3025
100843,San Francisco Acuautla,27960,-98.8586111111111,19.3441666666667
100883,San Jerónimo Cuatro Vientos (San Jerónimo),36778,-98.8416666666667,19.2930555555556
100890,Ixtapan De La Sal,17640,-99.6752777777778,18.8441666666667
100955,San Bartolo Del Llano,12227,-99.7388888888889,19.5897222222222
100969,San Pedro Los Baños,12149,-99.8336111111111,19.6666666666667
101004,Xalatlaco,15043,-99.4163888888889,19.1811111111111
101023,Jaltenco,11093,-99.0944444444444,19.7486111111111
101024,Alborada Jaltenco,15235,-99.0688888888889,19.6619444444444
101025,Jilotepec De Molina Enríquez,11828,-99.5327777777778,19.9519444444444
101260,Juchitepec De Mariano Rivapalacio,16021,-98.8791666666667,19.0997222222222
101283,Lerma De Villada,22713,-99.5116666666667,19.2855555555556
101306,San Pedro Tultepec,13634,-99.5130555555556,19.2663888888889
101308,Santa María Atarasquillo,13769,-99.4602777777778,19.3269444444444
101396,Melchor Ocampo,38599,-99.1391666666667,19.7047222222222
101405,Metepec,28205,-99.6047222222222,19.2502777777778
101408,San Bartolomé Tlaltelulco,11141,-99.6283333333333,19.2255555555556
101409,San Francisco Coaxusco,24900,-99.6147222222222,19.2655555555556
101411,San Jerónimo Chicahualco,26281,-99.5869444444444,19.28
101412,San Jorge Pueblo Nuevo,23107,-99.6277777777778,19.2541666666667
101416,San Salvador Tizatlalli,61367,-99.5908333333333,19.2602777777778
101477,Naucalpan De Juárez,792211,-99.2377777777778,19.4752777777778
101535,Ciudad Nezahualcóyotl,1104585,-98.9888888888889,19.4
101542,Santa Ana Nextlalpan,14871,-99.0725,19.7402777777778
101576,Villa Nicolás Romero,281799,-99.3141666666667,19.625
101581,Progreso Industrial,11289,-99.3577777777778,19.6333333333333
101606,Veintidós De Febrero,13021,-99.3466666666667,19.6113888888889
101629,Ocoyoacac,26015,-99.4605555555556,19.2738888888889
101756,Otumba De Gómez Farías,10097,-98.7547222222222,19.6969444444444
101833,Villa Cuauhtémoc,11241,-99.5580555555556,19.4166666666667
101872,Ozumba De Alzate,16700,-98.7936111111111,19.0391666666667
101890,Los Reyes Acaquilpan,85359,-98.98,19.3605555555556
101891,La Magdalena Atlicpac,26429,-98.9563888888889,19.37
101892,San Sebastián Chimalpa,12951,-98.9527777777778,19.3805555555556
101894,Emiliano Zapata,25309,-98.9747222222222,19.3436111111111
101895,Profesor Carlos Hank González,10416,-98.9388888888889,19.3722222222222
101901,Lomas De San Sebastián,12372,-98.9377777777778,19.3819444444444
101903,San Isidro,33737,-98.9505555555556,19.3397222222222
101946,San Antonio La Isla,12525,-99.5672222222222,19.1630555555556
102056,San Martín De Las Pirámides,12812,-98.8338888888889,19.7027777777778
102076,San Mateo Atenco,67890,-99.5297222222222,19.2641666666667
102239,Tecámac De Felipe Villanueva,15911,-98.9683333333333,19.7130555555556
102240,Los Reyes Acozac,21910,-98.9816666666667,19.7736111111111
102243,Santa María Ajoloapan,17784,-98.9638888888889,19.7625
102244,Ojo De Agua,242272,-99.01,19.6802777777778
102246,San Martín Azcatepec,35390,-98.9727777777778,19.6866666666667
102264,Fraccionamiento Social Progresivo Santo Tomás Chiconautla,15061,-98.9941666666667,19.6566666666667
102284,Tejupilco De Hidalgo,25631,-100.152777777778,18.9058333333333
102499,Temascalcingo De José María Velasco,12698,-100.003611111111,19.9147222222222
102691,Tenancingo De Degollado,14174,-99.5936111111111,18.9613888888889
102772,Tenango De Arista,21765,-99.5888888888889,19.1025
102812,Teoloyucan,51255,-99.1811111111111,19.7441666666667
102818,Teotihuacán De Arista,23325,-98.8608333333333,19.6897222222222
102885,Tepetlixpa,13239,-98.8205555555556,19.0258333333333
102908,Tepotzotlán,38119,-99.2236111111111,19.7161111111111
102948,Tequixquiac,22676,-99.1447222222222,19.9094444444444
102999,Texcoco De Mora,105165,-98.8819444444444,19.5055555555556
103008,San Miguel Coatlinchán,22619,-98.8722222222222,19.4488888888889
103014,Santiago Cuautlalpan,12336,-98.9013888888889,19.4313888888889
103016,Santa María Tulantongo,15584,-98.8705555555556,19.5319444444444
103069,Tezoyuca,16933,-98.9125,19.5913888888889
103083,Santiago Tianguistenco De Galeana,13106,-99.4683333333333,19.1805555555556
103093,San Pedro Tlaltizapan,11472,-99.4997222222222,19.1966666666667
103094,Santiago Tilapa,10087,-99.4197222222222,19.1855555555556
103147,Tlalmanalco De Velázquez,14786,-98.8025,19.2044444444444
103150,San Rafael,20873,-98.7577777777778,19.2088888888889
103183,Tlalnepantla,653410,-99.1947222222222,19.5366666666667
103184,Puerto Escondido (Tepeolulco Puerto Escondido),10717,-99.0980555555555,19.5519444444444
103357,Toluca De Lerdo,489333,-99.6538888888889,19.2922222222222
103358,Cacalomacán,12001,-99.7047222222222,19.2527777777778
103366,San Andrés Cuexcontitlán,18005,-99.6255555555556,19.3558333333333
103373,San José Guadalupe Otzacatipan,31299,-99.5919444444444,19.3447222222222
103378,San Mateo Otzacatipan,22656,-99.605,19.3269444444444
103380,San Pablo Autopan,35141,-99.6575,19.3572222222222
103381,San Pedro Totoltepec,21076,-99.5727777777778,19.3122222222222
103385,Santiago Tlacotepec,15853,-99.6708333333333,19.2238888888889
103477,Santiago Teyahualco,17594,-99.1238888888889,19.66
103482,Tultitlán De Mariano Escobedo,31936,-99.1694444444445,19.645
103483,Buenavista,206081,-99.1694444444445,19.6083333333333
103485,San Pablo De Las Salinas,189453,-99.0916666666667,19.6655555555556
103486,Fuentes Del Valle,74087,-99.1386111111111,19.6325
103487,Ampliación San Mateo (Colonia Solidaridad),16250,-99.1472222222222,19.6163888888889
103493,Valle De Bravo,25554,-100.130555555556,19.1925
103849,Xonacatlán,20680,-99.5305555555556,19.4044444444444
103851,Santa María Zolotepec,10656,-99.4927777777778,19.4205555555556
103952,San Miguel Zinacantepec,54220,-99.735,19.285
103967,San Antonio Acahualco,16442,-99.7744444444444,19.2772222222222
103968,San Juan De Las Huertas,12253,-99.7566666666667,19.2455555555556
104038,Zumpango De Ocampo,50742,-99.0991666666667,19.7969444444444
104051,San Bartolo Cuautlalpan,10989,-99.0094444444444,19.8130555555556
104053,San Juan Zitlaltepec,19600,-99.1477777777778,19.8091666666667
104085,Fraccionamiento La Trinidad,10230,-99.0827777777778,19.8291666666667
104098,Paseos De San Juan,10050,-99.0175,19.7819444444444
104106,Cuautitlán Izcalli,484573,-99.2113888888889,19.6461111111111
104108,Huilango,17399,-99.2563888888889,19.6805555555556
104116,Xico,356352,-98.9388888888889,19.2916666666667
104432,Acatic,11890,-102.905277777778,20.7794444444444
104532,Acatlán De Juárez,10461,-103.587222222222,20.4213888888889
104560,Ahualulco De Mercado,15512,-103.975,20.7005555555556
104615,Amatitán,11006,-103.73,20.835
104749,Arandas,52175,-102.340277777778,20.7055555555556
105049,El Arenal,11610,-103.693888888889,20.7761111111111
105176,Atotonilco El Alto,26874,-102.504166666667,20.5505555555556
105337,Autlán De Navarro,45382,-104.365277777778,19.7713888888889
105461,Ayotlán,11724,-102.328333333333,20.5280555555556
105623,La Barca,35219,-102.541944444444,20.2902777777778
105995,La Resolana,11180,-104.434722222222,19.6036111111111
106041,Cihuatlán,18164,-104.563055555556,19.2383333333333
106114,Ciudad Guzmán,97750,-103.464166666667,19.7086111111111
106166,Cocula,14548,-103.824166666667,20.3675
106206,Colotlán,13256,-103.264722222222,22.1172222222222
106584,Chapala,21596,-103.189722222222,20.2933333333333
106585,Ajijic,10509,-103.258055555556,20.2994444444444
106723,Degollado,11376,-102.135,20.4475
106835,Encarnación De Díaz,25010,-102.233055555556,21.5244444444444
107189,Etzatlán,13513,-104.078333333333,20.7672222222222
107330,Guadalajara,1495182,-103.342222222222,20.6763888888889
107900,Jalostotitlán,24423,-102.461111111111,21.1686111111111
108077,Jamay,17204,-102.709722222222,20.2944444444444
108416,Jocotepec,18852,-103.425277777778,20.2844444444444
108527,Lagos De Moreno,98206,-101.929166666667,21.3563888888889
108983,Magdalena,16214,-103.976111111111,20.9063888888889
109940,Ocotlán,83769,-102.768055555556,20.3513888888889
109992,Ojuelos De Jalisco,11881,-101.593333333333,21.8641666666667
110176,Poncitlán,13581,-102.924166666667,20.3813888888889
110247,Puerto Vallarta,203342,-105.227222222222,20.6136111111111
110258,Ixtapa,29036,-105.199722222222,20.7144444444444
110615,El Salto,21644,-103.181666666667,20.5194444444444
110620,Las Pintas,22838,-103.321111111111,20.5763888888889
110621,Las Pintitas,26500,-103.302222222222,20.5644444444444
110622,San José Del Castillo,15946,-103.235,20.5055555555556
110623,San José El Verde (El Verde),16275,-103.276111111111,20.5586111111111
110628,El Quince (San José El Quince),17669,-103.278888888889,20.5413888888889
110791,San Juan De Los Lagos,48684,-102.332777777778,21.2477777777778
111051,San Julián,12949,-102.180833333333,21.0097222222222
111238,San Miguel El Alto,23982,-102.398055555556,21.0305555555556
111538,Sayula,26789,-103.597222222222,19.8836111111111
111580,Tala,35396,-103.702777777778,20.6525
111824,Tamazula De Gordiano,18787,-103.25,19.6763888888889
112095,Tecalitlán,12411,-103.306666666667,19.4694444444444
112358,Teocaltiche,23726,-102.570277777778,21.4344444444444
112567,Tepatitlán De Morelos,91959,-102.757222222222,20.8175
112592,Capilla De Guadalupe,13308,-102.592222222222,20.8269444444444
112897,Tequila,29203,-103.835555555556,20.8794444444444
113072,Tizapán El Alto,14877,-103.039166666667,20.1586111111111
113101,Tlajomulco De Zúñiga,30273,-103.443055555556,20.4736111111111
113118,San Agustín,30424,-103.468333333333,20.5480555555556
113122,San Sebastián El Grande,28138,-103.430833333333,20.5319444444444
113124,Santa Cruz De Las Flores,11204,-103.502777777778,20.4805555555556
113125,Santa Cruz Del Valle,26866,-103.333888888889,20.5475
113198,La Tijera,12425,-103.440555555556,20.5816666666667
113332,Hacienda Santa Fe,86935,-103.380555555556,20.5180555555556
113336,Fraccionamiento Real Del Valle (El Paraíso),13949,-103.369722222222,20.5455555555556
113338,Fraccionamiento Villas De La Hacienda,11078,-103.382777777778,20.5311111111111
113346,Lomas Del Sur,19413,-103.4175,20.4925
113347,Lomas De San Agustín,11836,-103.467777777778,20.5275
113373,Tlaquepaque,575942,-103.307222222222,20.6386111111111
113375,Santa Anita,20320,-103.44,20.5505555555556
113633,Tonalá,408759,-103.245555555556,20.6233333333333
113635,Coyula,29674,-103.226666666667,20.6583333333333
113654,Centro De Readaptación Social,13071,-103.193611111111,20.5544444444444
113787,Tototlán,12516,-102.789166666667,20.5436111111111
113928,Tuxpan,27523,-103.372222222222,19.5544444444444
114471,Villa Hidalgo,15182,-102.585277777778,21.6744444444444
114557,Yahualica De González Gallo,13655,-102.887222222222,21.1825
114711,Zacoalco De Torres,18172,-103.565277777778,20.2286111111111
114745,Zapopan,1142483,-103.388333333333,20.7205555555556
114804,Tesistán (San Francisco Tesistán),62397,-103.486111111111,20.7983333333333
114979,Zapotiltic,22833,-103.4125,19.6255555555556
115104,Zapotlanejo,32376,-103.064166666667,20.6225
115486,Actopan,29223,-98.9441666666667,20.2680555555556
115727,Apan,26642,-98.4519444444445,19.71
116148,Cuautepec De Hinojosa,18835,-98.3091666666667,20.0355555555556
116514,Tepatepec,11084,-99.0877777777778,20.2455555555556
116802,Huejutla De Reyes,40015,-98.4194444444445,21.14
117094,Ixmiquilpan,34814,-99.2188888888889,20.4841666666667
117567,Mineral Del Monte,11015,-98.6716666666667,20.1391666666667
117673,Mixquiahuala,25510,-99.2144444444445,20.2297222222222
118104,Pachuca De Soto,256584,-98.7358333333333,20.1216666666667
118214,Progreso,17486,-99.1897222222222,20.2480555555556
118254,La Providencia Siglo Xxi,16747,-98.7172222222222,20.0641666666667
118340,San Agustín Tlaxiaca,10496,-98.8858333333333,20.1144444444444
118602,Santiago Tulantepec,16078,-98.3575,20.0397222222222
118902,Tepeapulco,15244,-98.5530555555556,19.785
118903,Fray Bernardino De Sahagún (Ciudad Sahagún),28556,-98.5738888888889,19.7697222222222
119028,Tepeji De Ocampo,34151,-99.3416666666667,19.9052777777778
119244,Tizayuca,43250,-98.9891666666667,19.8416666666667
119270,Don Antonio,17736,-98.9347222222222,19.8744444444444
119272,Haciendas De Tizayuca,14787,-98.9625,19.8736111111111
119506,Tlaxcoapan,14241,-99.2222222222222,20.0919444444444
119538,Tula De Allende,28577,-99.3419444444444,20.0563888888889
119544,El Llano,14559,-99.3172222222222,20.0572222222222
119556,San Marcos,12779,-99.3366666666667,20.0283333333333
119614,Tulancingo,102406,-98.3633333333333,20.0858333333333
119793,Zacualtipán,23125,-98.6530555555556,20.6438888888889
119932,Zimapán,13243,-99.3827777777778,20.7377777777778
120092,Acapulco De Juárez,673479,-99.8863888888889,16.8616666666667
120888,Atoyac De Álvarez,21407,-100.433055555556,17.2066666666667
121068,Ayutla De Los Libres,15370,-99.0938888888889,16.9658333333333
121668,Coyuca De Benítez,13566,-100.083611111111,17.0116666666667
122187,Cuajinicuilapa,10282,-98.4105555555556,16.4708333333333
122533,Chilapa De Álvarez,31157,-99.1738888888889,17.5991666666667
122724,Chilpancingo De Los Bravo,187251,-99.5011111111111,17.55
122859,Cruz Grande,11783,-99.1311111111111,16.7233333333333
123217,Ciudad De Huitzuco,17475,-99.3311111111111,18.3011111111111
123270,Iguala De La Independencia,118468,-99.5427777777778,18.3447222222222
123403,Zihuatanejo,67408,-101.562222222222,17.6388888888889
123608,Tierra Colorada,11540,-99.5294444444444,17.1661111111111
123641,Chichihualco,10690,-99.6755555555556,17.6566666666667
124050,Ometepec,24120,-98.415,16.6913888888889
124250,Petatlán,21659,-101.268055555556,17.5394444444444
124543,Ciudad Altamirano,25168,-100.666111111111,18.3547222222222
124734,San Marcos,13282,-99.3847222222222,16.7961111111111
125049,Taxco De Alarcón,52217,-99.6113888888889,18.5563888888889
125238,Técpan De Galeana,15119,-100.63,17.2138888888889
125617,Teloloapan,23549,-99.8663888888889,18.3647222222222
125904,Tixtla De Guerrero,22826,-99.4022222222222,17.5655555555556
126115,Tlapa De Comonfort,46975,-98.5786111111111,17.5433333333333
126928,Zumpango Del Río,24719,-99.5283333333333,17.6513888888889
127382,Abasolo,27389,-101.528888888889,20.4511111111111
127684,Acámbaro,57972,-100.721388888889,20.0325
127898,San Miguel De Allende,69811,-100.743888888889,20.9152777777778
128410,Apaseo El Alto,27991,-100.621666666667,20.4555555555556
128542,Apaseo El Grande,26121,-100.686666666667,20.5469444444444
128743,Celaya,340387,-100.815,20.5288888888889
128776,Rincón De Tamayo,10324,-100.755277777778,20.4227777777778
128791,San Miguel Octopan,13303,-100.7475,20.5747222222222
129043,Ciudad Manuel Doblado,13956,-101.949166666667,20.7283333333333
129334,Comonfort,23683,-100.756666666667,20.715
129341,Empalme Escobedo,13384,-100.749722222222,20.6725
129510,Cortazar,61658,-100.961111111111,20.4827777777778
129617,Cuerámaro,13948,-101.673888888889,20.6258333333333
129774,Dolores Hidalgo Cuna De La Independencia Nacional,59240,-100.9325,21.1561111111111
130352,Marfil,29375,-101.285555555556,20.9975
130313,Guanajuato,72237,-101.256666666667,21.0177777777778
130577,Irapuato,380941,-101.3475,20.6741666666667
131056,Jaral Del Progreso,20457,-101.066388888889,20.3733333333333
131278,León De Los Aldama,1238962,-101.680555555556,21.1197222222222
131465,Medina,16166,-101.6225,21.1497222222222
131514,Centro Familiar La Soledad,32159,-101.749722222222,21.135
131610,La Ermita,19703,-101.733055555556,21.1519444444444
131881,Moroleón,43200,-101.19,20.1297222222222
132032,Pénjamo,40070,-101.722222222222,20.4311111111111
132241,Santa Ana Pacueco,10052,-102.015833333333,20.3472222222222
132591,Purísima De Bustos,43512,-101.879166666667,21.0305555555556
132697,Romita,21176,-101.516666666667,20.8702777777778
132925,Salamanca,160169,-101.197222222222,20.5702777777778
133027,Valtierrilla,12713,-101.1275,20.5322222222222
133259,Salvatierra,37203,-100.878055555556,20.215
133535,San Felipe,28452,-101.213611111111,21.4808333333333
133962,San Francisco Del Rincón,71139,-101.857777777778,21.0183333333333
134156,San José Iturbide,23471,-100.387222222222,20.9988888888889
134366,San Luis De La Paz,49914,-100.516388888889,21.2986111111111
134861,Juventino Rosas,42264,-100.995,20.6433333333333
135045,Silao,74242,-101.426666666667,20.9436111111111
135479,Tarimoro,12188,-100.758055555556,20.2886111111111
135635,Uriangato,51382,-101.179722222222,20.1388888888889
135671,Valle De Santiago,68058,-101.191388888889,20.3927777777778
136068,Villagrán,27079,-100.995277777778,20.5130555555556
136266,Yuriria,25216,-101.1275,20.2122222222222
136377,Canatlán,11495,-104.778333333333,24.5275
136790,Victoria De Durango,518709,-104.654444444444,24.0227777777778
137382,Gómez Palacio,257352,-103.498333333333,25.5611111111111
137741,Guadalupe Victoria,16506,-104.122222222222,24.4461111111111
138106,Lerdo,79669,-103.524444444444,25.5361111111111
139700,Villa Unión,10753,-104.044444444444,23.9747222222222
139728,El Salto,24241,-105.360277777778,23.7783333333333
140587,Santiago Papasquiaro,26121,-105.419166666667,25.0438888888889
142052,Vicente Guerrero,15982,-103.987777777778,23.7311111111111
142070,Nuevo Ideal,10876,-105.073888888889,24.8880555555556
142171,Azcapotzalco,414711,-99.1833333333333,19.4827777777778
142172,Coyoacán,620416,-99.1616666666667,19.35
142173,Cuajimalpa De Morelos,160491,-99.2847222222222,19.3744444444444
142175,San Lorenzo Acopilco,23037,-99.3255555555556,19.3288888888889
142193,Gustavo A. Madero,1185772,-99.1125,19.4822222222222
142194,Iztacalco,384326,-99.0977777777778,19.3952777777778
142195,Iztapalapa,1815786,-99.0930555555556,19.3583333333333
142196,La Magdalena Contreras,238431,-99.2138888888889,19.3333333333333
142209,Villa Milpa Alta,18274,-99.0230555555556,19.1922222222222
142210,San Antonio Tecómitl,24397,-98.9880555555556,19.2177777777778
142212,San Francisco Tecoxpa,11456,-99.0063888888889,19.1916666666667
142213,San Pablo Oztotepec,15507,-99.0725,19.1858333333333
142215,San Salvador Cuauhtenco,13856,-99.0875,19.1908333333333
142216,Santa Ana Tlacotenco,10593,-98.9961111111111,19.1738888888889
142434,Álvaro Obregón,726664,-99.2,19.4
142438,Tláhuac,305076,-99.0541666666667,19.3041666666667
142439,San Andrés Mixquic,13310,-98.9641666666667,19.2244444444444
142440,San Juan Ixtayopan,24120,-98.9947222222222,19.2419444444444
142479,Tlalpan,574577,-99.225,19.3083333333333
142481,San Miguel Ajusco,29781,-99.205,19.2172222222222
142482,San Miguel Topilejo,34603,-99.1416666666667,19.2005555555556
142620,Xochimilco,407885,-99.1388888888889,19.275
142714,Benito Juárez,385439,-99.1583333333333,19.4016666666667
142715,Cuauhtémoc,531831,-99.1444444444444,19.4430555555556
142716,Miguel Hidalgo,372889,-99.1911111111111,19.4066666666667
142717,Venustiano Carranza,430978,-99.1138888888889,19.4166666666667
142853,Juan Aldama,18642,-105.911111111111,28.8386111111111
143102,Ascensión,13456,-107.996388888889,31.0927777777778
144261,San Juanito,10535,-107.600277777778,27.97
144738,Santa Rosalía De Camargo,40221,-105.1725,27.6869444444444
145569,Cuauhtémoc,114007,-106.866666666667,28.405
146091,Chihuahua,809232,-106.088888888889,28.6352777777778
146560,Delicias,118071,-105.471111111111,28.1933333333333
147038,Guachochi,14513,-107.07,26.8194444444444
150031,Hidalgo Del Parral,104836,-105.663055555556,26.9325
150385,José Mariano Jiménez,34281,-104.923333333333,27.13
150678,Juárez,1321004,-106.486944444444,31.7394444444444
150876,Madera,15447,-108.141388888889,29.19
151296,Pedro Meoqui,22574,-105.482222222222,28.2677777777778
152401,Nuevo Casas Grandes,55553,-107.9125,30.4133333333333
152605,Manuel Ojinaga,22744,-104.416388888889,29.5644444444444
153428,Saucillo,11004,-105.289166666667,28.0322222222222
155088,Acala,13889,-92.8055555555556,16.5561111111111
155906,Jaltenango De La Paz (Ángel Albino Corzo),10427,-92.7238888888889,15.8708333333333
155996,Arriaga,24447,-93.8986111111111,16.2338888888889
156367,Berriozábal,28128,-93.2727777777778,16.8
156673,Bochil,12404,-92.8902777777778,16.9952777777778
156797,Cacahoatán,16572,-92.1652777777778,14.9891666666667
157071,Cintalapa De Figueroa,42467,-93.7202777777778,16.6977777777778
157677,Comitán De Domínguez,97537,-92.1341666666667,16.2511111111111
158884,Chiapa De Corzo,45077,-93.0455555555556,16.7458333333333
160251,Frontera Comalapa,18704,-92.1413888888889,15.6583333333333
160769,Huixtla,32033,-92.4619444444444,15.1352777777778
161861,Mapastepec,17931,-92.8916666666667,15.4416666666667
162415,Las Margaritas,20786,-91.9816666666667,16.3152777777778
163014,Motozintla De Mendoza,23755,-92.2480555555556,15.3625
163385,Ocosingo,41878,-92.0961111111111,16.9072222222222
163493,Nueva Palestina,10588,-91.26,16.8172222222222
164537,Ocozocoautla De Espinosa,39180,-93.375,16.7625
165506,Palenque,42947,-91.9822222222222,17.5091666666667
166362,Pichucalco,14212,-93.1180555555555,17.5094444444444
166435,Pijijiapan,16917,-93.2091666666667,15.6866666666667
167420,Pueblo Nuevo Solistahuacán,10043,-92.8969444444445,17.1569444444444
167536,Reforma,26257,-93.1463888888889,17.8638888888889
167570,Las Rosas,18817,-92.3708333333333,16.3625
168053,San Cristóbal De Las Casas,158027,-92.6383333333333,16.7366666666667
168465,Simojovel De Allende,10762,-92.715,17.14
168876,Suchiapa,16637,-93.0916666666667,16.6294444444444
168944,Ciudad Hidalgo,14606,-92.1497222222222,14.6791666666667
169108,Tapachula De Córdova Y Ordóñez,202672,-92.2605555555556,14.9080555555556
170097,Teopisca,16240,-92.4736111111111,16.5394444444444
170355,Tonalá,35322,-93.7513888888889,16.0894444444444
171478,Tuxtla Gutiérrez,537102,-93.1155555555555,16.7530555555556
171886,Venustiano Carranza,15496,-92.5638888888889,16.3380555555556
172179,Villa Corzo,10841,-93.2675,16.1847222222222
172222,El Parral,10865,-93.0063888888889,16.3661111111111
173448,Villaflores,37237,-93.2666666666667,16.2336111111111
174506,Yajalón,16622,-92.3336111111111,17.1733333333333
175022,Ciudad De Armería,15923,-103.964722222222,18.9347222222222
175113,Colima,137383,-103.730833333333,19.2436111111111
175395,Coquimatlán,13358,-103.811388888889,19.1977777777778
175574,Manzanillo,130035,-104.315833333333,19.0522222222222
175585,El Colomo,10255,-104.26,19.0605555555556
175790,Tecomán,85689,-103.874722222222,18.9088888888889
176168,Ciudad De Villa De Álvarez,117600,-103.737777777778,19.2672222222222
176276,Ciudad Acuña,134233,-100.931666666667,29.3241666666667
176421,Allende,20694,-100.854166666667,28.3472222222222
176879,Castaños,23649,-101.430555555556,26.7852777777778
176967,Cuatro Ciénegas De Carranza,10309,-102.066666666667,26.9858333333333
177080,Francisco I. Madero (Chávez),26632,-103.273055555556,25.775
177202,Frontera,69462,-101.449444444444,26.9261111111111
177632,Matamoros,52233,-103.228055555556,25.5277777777778
177789,Monclova,215271,-101.416666666667,26.9008333333333
177961,Ciudad Melchor Múzquiz,35060,-101.514444444444,27.8775
177978,Palaú,16970,-101.423333333333,27.8897222222222
178151,Nava,22192,-100.7675,28.4213888888889
178385,Parras De La Fuente,33817,-102.183611111111,25.4369444444444
178550,Piedras Negras,150178,-100.523055555556,28.7
178632,Ramos Arizpe,66554,-100.950277777778,25.5436111111111
178840,Sabinas,54905,-101.12,27.8483333333333
178947,Saltillo,709671,-101,25.4333333333333
179194,San Buenaventura,20480,-101.548333333333,27.0597222222222
179249,Nueva Rosita,38158,-101.2175,27.9386111111111
179312,San Pedro,48746,-102.984444444444,25.7588888888889
179657,Torreón,608836,-103.441666666667,25.5444444444444
179904,Zaragoza,10461,-100.916666666667,28.4872222222222
180084,Calkiní,14934,-90.0505555555555,20.3711111111111
180088,Dzitbalché,11686,-90.0566666666667,20.3197222222222
180135,San Francisco De Campeche,220389,-90.5366666666667,19.8458333333333
180340,Ciudad Del Carmen,169466,-91.8352777777778,18.6383333333333
181215,Champotón,30881,-90.7233333333333,19.3555555555556
181495,Hecelchakán,10285,-90.1338888888889,20.1769444444444
181815,Escárcega,29477,-90.7319444444445,18.6044444444444
182860,Ciudad Constitución,40935,-111.670277777778,25.0322222222222
183511,Santa Rosalía,11765,-112.266944444444,27.3388888888889
183529,Guerrero Negro,13054,-114.056111111111,27.9588888888889
183970,La Paz,215178,-110.310833333333,24.1422222222222
185014,San José Del Cabo,69788,-109.708055555556,23.0613888888889
185038,Cabo San Lucas,68463,-109.915555555556,22.8897222222222
185123,Las Veredas,10478,-109.706111111111,23.1502777777778
185325,Colonia Del Sol,48032,-109.920833333333,22.9125
185381,Las Palmas,11562,-109.941666666667,22.9363888888889
185563,Loreto,14724,-111.343333333333,26.0127777777778
185714,Ensenada,279765,-116.605833333333,31.8577777777778
185745,Lázaro Cárdenas,16294,-115.933333333333,30.5255555555556
185747,Rodolfo Sánchez Taboada (Maneadero),22957,-116.570833333333,31.7275
185787,Vicente Guerrero,11455,-115.988888888889,30.7258333333333
187423,Mexicali,689775,-115.467777777778,32.6633333333333
187465,Ciudad Guadalupe Victoria (Kilómetro Cuarenta Y Tres),17119,-115.104444444444,32.2941666666667
187514,Progreso,12557,-115.584166666667,32.5841666666667
187515,Puebla,15168,-115.351944444444,32.5669444444444
187529,San Felipe,16702,-114.835277777778,31.0275
187530,Santa Isabel,29311,-115.575555555556,32.6313888888889
189073,Tecate,64764,-116.640277777778,32.5722222222222
189518,Tijuana,1300983,-117.043611111111,32.5347222222222
189528,La Joya,26860,-117.003055555556,32.4455555555556
189558,Las Delicias,15486,-116.943611111111,32.4088888888889
189628,Terrazas Del Valle,20421,-116.826666666667,32.4875
189823,Pórticos De San Antonio,34234,-117.034166666667,32.4425
189835,El Refugio,36400,-116.832777777778,32.4552777777778
189925,Villa Del Prado 2da Sección,18226,-116.971666666667,32.4238888888889
189987,Villa Del Campo,13906,-116.738333333333,32.5075
189997,Villa Del Prado,12303,-116.966111111111,32.4083333333333
190050,Playas De Rosarito,65278,-117.056111111111,32.3422222222222
190257,Aguascalientes,722250,-102.296111111111,21.8808333333333
191014,Calvillo,19742,-102.718611111111,21.8469444444444
191223,Jesús María,43012,-102.343333333333,21.9611111111111
191243,Jesús Gómez Portugal (Margaritas),11589,-102.291388888889,21.9991666666667
191458,Pabellón De Arteaga,28633,-102.278333333333,22.1475
191644,Rincón De Romos,27988,-102.3225,22.2297222222222
192154,San Francisco De Los Romo,16124,-102.270277777778,22.0725
134,Víctor Rosales,32721,-102.702222222222,22.9488888888889
430,Fresnillo,120944,-102.8675,23.1755555555556
1258,Guadalupe,124623,-102.507777777778,22.7527777777778
1441,Jalpa,14199,-102.979444444444,21.6313888888889
1565,Jerez De García Salinas,43064,-102.990277777778,22.6486111111111
1750,Juan Aldama,15431,-103.394444444444,24.2894444444444
1797,Loreto,24260,-101.9875,22.2733333333333
4682,Acanceh,10968,-89.4536111111111,20.8127777777778
2194,Miguel Auza,13551,-103.449722222222,24.2938888888889
2484,Nochistlán De Mejía,16562,-102.845555555556,21.3605555555556
2684,Ojocaliente,20851,-102.251388888889,22.57
3226,Río Grande,32944,-103.036388888889,23.8225
3371,Sombrerete,21702,-103.639722222222,23.6347222222222
3762,Tlaltenango De Sánchez Román,16396,-103.303611111111,21.7816666666667
3840,Valparaíso,12919,-103.567777777778,22.7702777777778
4453,Villanueva,12269,-102.883055555556,22.3536111111111
4565,Zacatecas,129011,-102.575277777778,22.7716666666667
4633,Trancoso,14021,-102.364444444444,22.7313888888889
4701,Akil,10176,-89.3477777777778,20.2655555555556
4920,Chemax,14885,-87.9372222222222,20.655
5139,Espita,11551,-88.3047222222222,21.0127777777778
5209,Hunucmá,24910,-89.8744444444444,21.0152777777778
5234,Izamal,16195,-89.0177777777778,20.9313888888889
5261,Kanasín,77240,-89.5577777777778,20.9344444444444
5334,Maxcanú,12621,-90.0008333333333,20.5830555555556
5360,Mérida,777615,-89.6216666666667,20.9677777777778
5532,Motul De Carrillo Puerto,23240,-89.2830555555555,21.095
5581,Muna,11469,-89.7130555555556,20.4847222222222
5607,Oxkutzcab,23096,-89.4183333333333,20.3027777777778
5715,Peto,19821,-88.9213888888889,20.1255555555556
5770,Progreso,37369,-89.6636111111111,21.2827777777778
6009,Tekax De Álvaro Obregón,25751,-89.2880555555556,20.2019444444444
6220,Ticul,32796,-89.5338888888889,20.3952777777778
6292,Tixkokob,10968,-89.3936111111111,21.0022222222222
6345,Tizimín,46971,-88.1647222222222,21.1425
6867,Umán,39611,-89.75,20.8833333333333
6929,Valladolid,48973,-88.2016666666667,20.6894444444444
7304,Ciudad De Apizaco,49506,-98.14,19.4155555555556
7328,Calpulalpan,33263,-98.5691666666667,19.5877777777778
7434,Villa De El Carmen Tequexquitla,14249,-97.6558333333333,19.3244444444444
7474,Santa Ana Chiautempan,48030,-98.1925,19.3138888888889
7541,Huamantla,51996,-97.9233333333333,19.3113888888889
7750,Contla,27610,-98.1677777777778,19.3333333333333
7796,Ciudad De Nanacamilpa,12177,-98.5352777777778,19.4925
7899,Villa Vicente Guerrero,60001,-98.17,19.1188888888889
7947,Tenancingo,11636,-98.2011111111111,19.1469444444444
7953,Teolocholco,16240,-98.1908333333333,19.2433333333333
8023,Tetla,15161,-98.1033333333333,19.4405555555556
8089,Tlaxcala De Xicohténcatl,14692,-98.2386111111111,19.3166666666667
8090,Ocotlán,22248,-98.2283333333333,19.3166666666667
8098,Santa María Acuitlapilco,13386,-98.2358333333333,19.2775
8105,Tlaxco,14806,-98.1186111111111,19.6138888888889
8284,San Andrés Ahuashuatepec,10114,-98.1033333333333,19.3777777777778
8298,Xaloztoc,10191,-98.0486111111111,19.4036111111111
8333,Papalotla,22969,-98.2038888888889,19.1686111111111
8342,Xicohtzinco,12255,-98.2333333333333,19.1738888888889
8361,Zacatelco,38466,-98.2397222222222,19.2158333333333
8404,La Magdalena Tlaltelulco,16834,-98.1938888888889,19.2758333333333
8522,Acayucan,50934,-94.9130555555556,17.9508333333333
9266,Altotonga,19722,-97.2455555555556,19.7661111111111
9360,Alvarado,23128,-95.7663888888889,18.7761111111111
9628,Naranjos,20073,-97.6833333333333,21.3472222222222
9769,Ángel R. Cabada,12033,-95.4469444444445,18.5944444444444
9955,José Cardel,19092,-96.37,19.3683333333333
10079,General Miguel Alemán (Potrero Nuevo),14287,-96.7969444444444,18.8944444444444
10435,Banderilla,19649,-96.9388888888889,19.5905555555556
10540,Veracruz,126507,-96.1166666666667,19.1441666666667
10584,Ciudad Mendoza,35641,-97.1833333333333,18.8036111111111
10685,Catemaco,27615,-95.1125,18.4261111111111
11014,Cerro Azul,22268,-97.7397222222222,21.1877777777778
11112,Coatepec,53621,-96.9586111111111,19.4552777777778
11222,Coatzacoalcos,235983,-94.4633333333333,18.1358333333333
11223,Allende,23620,-94.3811111111111,18.1330555555556
11275,Fraccionamiento Ciudad Olmeca,16074,-94.5525,18.1505555555556
11298,Coatzintla,34036,-97.46,20.4858333333333
11528,Córdoba,140896,-96.94,18.8902777777778
11530,La Luz Francisco I. Madero (San Román),11099,-96.9666666666667,18.8791666666667
11624,Cosamaloapan,30577,-95.7908333333333,18.3766666666667
11769,Coscomatepec De Bravo,15252,-97.0477777777778,19.0730555555556
11831,Cosoleacaque,22454,-94.6363888888889,17.9994444444444
11870,Minatitlán,47499,-94.5697222222222,18.0125
38745,Nacajuca,11289,-93.0175,18.1663888888889
12279,Cuitláhuac,13651,-96.7263888888889,18.8147222222222
13062,Las Choapas,42693,-94.0983333333333,17.9086111111111
13713,Chocamán,10727,-97.0280555555556,19.0138888888889
14041,Filomeno Mata,13304,-97.7038888888889,20.1983333333333
14050,Fortín De Las Flores,21370,-97,18.9080555555556
14065,Córdoba (Santa Leticia),11720,-96.9788888888889,18.9086111111111
14111,Gutiérrez Zamora,13651,-97.0897222222222,20.4536111111111
14344,Huatusco De Chicuellar,31305,-96.9675,19.1494444444444
14700,Isla,26287,-95.5263888888889,18.0291666666667
15190,Ixhuatlán Del Sureste,10149,-94.3908333333333,18.0227777777778
15489,Ixtaczoquitlán,26187,-97.0622222222222,18.8627777777778
15551,Jalacingo,13310,-97.3077777777778,19.8044444444444
15591,Xalapa-Enríquez,424755,-96.9091666666667,19.5380555555556
15652,Jáltipan De Morelos,32778,-94.7144444444445,17.9702777777778
16127,Xico,18652,-97.0047222222222,19.4216666666667
16232,Juan Rodríguez Clara,14628,-95.4013888888889,17.9938888888889
16541,Lerdo De Tejada,18715,-95.5141666666667,18.6238888888889
16579,Maltrata,11842,-97.2763888888889,18.8119444444444
16716,Palmira,14256,-97.1113888888889,18.8827777777778
16749,Martínez De La Torre,60074,-97.0527777777778,20.0686111111111
16768,Independencia,15297,-97.0513888888889,20.0566666666667
17089,El Tejar,11168,-96.1605555555556,19.0769444444444
17184,Fraccionamiento Puente Moreno,13037,-96.1575,19.1025
17224,Minatitlán,112046,-94.5605555555556,18.0172222222222
17517,Misantla,26827,-96.855,19.9263888888889
18059,Nogales,22085,-97.1647222222222,18.8202777777778
18085,Oluta,12709,-94.8936111111111,17.9283333333333
18209,Orizaba,120844,-97.0966666666667,18.8586111111111
18245,Oteapan,14925,-94.6697222222222,17.9966666666667
19284,Pánuco,40754,-98.1872222222222,22.0519444444444
19303,Moralillo,10191,-97.9116666666667,22.2261111111111
19886,Papantla De Olarte,53546,-97.3244444444444,20.4488888888889
20262,Paso Del Macho,13413,-96.7238888888889,18.9713888888889
20542,Perote,37516,-97.245,19.5586111111111
20616,Platón Sánchez,10758,-98.3741666666667,21.2727777777778
21003,Poza Rica De Hidalgo,185242,-97.4436111111111,20.5341666666667
21082,Anáhuac,14116,-97.8547222222222,22.2016666666667
21093,Benito Juárez,14990,-97.835,22.2052777777778
21290,Río Blanco,40611,-97.1133333333333,18.8313888888889
21342,San Andrés Tuxtla,61769,-95.2141666666667,18.4413888888889
21836,Santiago Tuxtla,15459,-95.3013888888889,18.4675
22078,Sayula De Alemán,13980,-94.9605555555556,17.8811111111111
22432,Soledad De Doblado,12398,-96.4211111111111,19.0463888888889
23315,Tantoyuca,30587,-98.23,21.3516666666667
24190,Álamo,25159,-97.6775,20.9136111111111
24518,Tempoal De Sánchez,12526,-98.3880555555556,21.5225
25614,Tierra Blanca,47824,-96.3572222222222,18.4488888888889
26083,Tihuatlán,14417,-97.5369444444444,20.7169444444444
26131,Plan De Ayala,11657,-97.4747222222222,20.5475
27019,Tlapacoyan,35338,-97.2130555555556,19.9630555555556
27226,Túxpam De Rodríguez Cano,84750,-97.3808333333333,20.9586111111111
27229,Alto Lucero,15011,-97.4419444444444,20.9536111111111
27780,Veracruz,428323,-96.1533333333333,19.1902777777778
27782,Las Amapolas,14553,-96.1977777777778,19.1519444444444
27797,Valente Díaz,25700,-96.2208333333333,19.1716666666667
27857,Fraccionamiento Geovillas Los Pinos,12840,-96.2263888888889,19.2172222222222
28422,Agua Dulce,36079,-94.1436111111111,18.1380555555556
28598,Nanchital De Lázaro Cárdenas Del Río,25289,-94.4094444444444,18.0647222222222
28622,Tres Valles,17299,-96.1361111111111,18.2394444444444
28867,Carlos A. Carrillo,17989,-95.7447222222222,18.3708333333333
29360,Aldama,13661,-98.0736111111111,22.9194444444444
29808,Altamira,59536,-97.9369444444444,22.3958333333333
29850,Miramar,118614,-97.8694444444444,22.3375
